[{"OBJECT_NAME":"ION SCV-013","OBJECT_ID":"2023-174AW","EPOCH":"2026-03-09T22:59:29.755392","MEAN_MOTION":15.04632564,"ECCENTRICITY":0.00998876,"INCLINATION":97.6297,"RA_OF_ASC_NODE":125.3193,"ARG_OF_PERICENTER":172.5348,"MEAN_ANOMALY":187.7394,"EPHEMERIS_TYPE":0,"CLASSIFICATION_TYPE":"U","NORAD_CAT_ID":58300,"ELEMENT_SET_NO":999,"REV_AT_EPOCH":12661,"BSTAR":0.00023880169,"MEAN_MOTION_DOT":3.68e-5,"MEAN_MOTION_DDOT":0},{"OBJECT_NAME":"STARLINK-32329","OBJECT_ID":"2025-014B","EPOCH":"2026-03-09T06:24:51.651072","MEAN_MOTION":15.27581309,"ECCENTRICITY":8.741e-5,"INCLINATION":42.9925,"RA_OF_ASC_NODE":156.6965,"ARG_OF_PERICENTER":328.9918,"MEAN_ANOMALY":31.0882,"EPHEMERIS_TYPE":0,"CLASSIFICATION_TYPE":"U","NORAD_CAT_ID":62736,"ELEMENT_SET_NO":999,"REV_AT_EPOCH":6319,"BSTAR":0.00096267325,"MEAN_MOTION_DOT":0.00026324,"MEAN_MOTION_DDOT":0}]
